[{"OBJECT_NAME":"NUSAT-44 (MARIA MITCHELL)","OBJECT_ID":"2024-043AA","EPOCH":"2026-03-09T22:12:18.524160","MEAN_MOTION":15.29764305,"ECCENTRICITY":0.0007331,"INCLINATION":97.5299,"RA_OF_ASC_NODE":207.7691,"ARG_OF_PERICENTER":214.9017,"MEAN_ANOMALY":145.1743,"EPHEMERIS_TYPE":0,"CLASSIFICATION_TYPE":"U","NORAD_CAT_ID":59122,"ELEMENT_SET_NO":999,"REV_AT_EPOCH":11209,"BSTAR":0.00061063193,"MEAN_MOTION_DOT":0.00017562,"MEAN_MOTION_DDOT":0},{"OBJECT_NAME":"STARLINK-35416","OBJECT_ID":"2025-245Q","EPOCH":"2026-03-09T20:48:09.306432","MEAN_MOTION":15.30244737,"ECCENTRICITY":0.00016047,"INCLINATION":53.1591,"RA_OF_ASC_NODE":283.0705,"ARG_OF_PERICENTER":57.4199,"MEAN_ANOMALY":302.6957,"EPHEMERIS_TYPE":0,"CLASSIFICATION_TYPE":"U","NORAD_CAT_ID":66248,"ELEMENT_SET_NO":999,"REV_AT_EPOCH":2122,"BSTAR":0.001032988,"MEAN_MOTION_DOT":0.00030403,"MEAN_MOTION_DDOT":0}]
